*******************************************************************************
Ephemeris / WWW_USER Mon Mar 24 11:05:21 2025 Pasadena, USA      / Horizons    
*******************************************************************************
Target body name: (2018 VN1)                      {source: JPL#9}
Center body name: Earth (399)                     {source: DE441}
Center-site name: Mauna Kea
*******************************************************************************
Start time      : A.D. 2018-Aug-28 04:50:00.0000 UT      
Stop  time      : A.D. 2018-Aug-28 15:56:00.0000 UT      
Step-size       : 1 minutes
*******************************************************************************
Target pole/equ : undefined
Target radii    : undefined                                                    
Center geodetic : 204.5278, 19.8260847, 4.21024   {E-lon(deg),Lat(deg),Alt(km)}
Center cylindric: 204.5278, 6006.35451, 2151.0229 {E-lon(deg),Dxy(km),Dz(km)}
Center pole/equ : ITRF93                          {East-longitude positive}
Center radii    : 6378.137, 6378.137, 6356.752 km {Equator_a, b, pole_c}       
Target primary  : Sun
Vis. interferer : MOON (R_eq= 1737.400) km        {source: DE441}
Rel. light bend : Sun                             {source: DE441}
Rel. lght bnd GM: 1.3271E+11 km^3/s^2                                          
Small-body perts: Yes                             {source: SB441-N16}
Atmos refraction: NO (AIRLESS)
RA format       : HMS
Time format     : CAL 
Calendar mode   : Mixed Julian/Gregorian
RTS-only print  : NO       
EOP file        : eop.250321.p250617                                           
EOP coverage    : DATA-BASED 1962-JAN-20 TO 2025-MAR-21. PREDICTS-> 2025-JUN-16
Units conversion: 1 au= 149597870.700 km, c= 299792.458 km/s, 1 day= 86400.0 s 
Table cut-offs 1: Elevation (-90.0deg=NO ),Airmass (>38.000=NO), Daylight (YES)
Table cut-offs 2: Solar elongation (  0.0,180.0=NO ),Local Hour Angle( 0.0=NO )
Table cut-offs 3: RA/DEC angular rate (     0.0=NO )                           
*******************************************************************************
Initial IAU76/J2000 heliocentric ecliptic osculating elements (au, days, deg.):
  EPOCH=  2458428.5 ! 2018-Nov-06.00 (TDB)         Residual RMS= .27219        
   EC= .3884608603153671   QR= 1.011903292497374   TP= 2458433.1511739166      
   OM= 228.4137592171332   W=  180.2469578564258   IN= 3.355185598403424       
  Equivalent ICRF heliocentric cartesian coordinates (au, au/d):
   X= 7.364971791856070E-01  Y= 6.361813492829538E-01  Z= 2.815132693616627E-01
  VX=-1.417073247356795E-02 VY= 1.354428742085641E-02 VZ= 4.590405825264917E-03
Asteroid physical parameters (km, seconds, rotational period in hours):        
   GM= n.a.                RAD= n.a.               ROTPER= n.a.                
   H= 26.2                 G= .150                 B-V= n.a.                   
                           ALBEDO= n.a.            STYP= n.a.                  
*******************************************************************************
 Date__(UT)__HR:MN     R.A._________(ICRF)_________DEC
******************************************************
$$SOE
 2018-Aug-28 08:56  m  22 28 46.926897 +07 28 20.37951
 2018-Aug-28 08:57  m  22 28 46.895283 +07 28 20.82515
 2018-Aug-28 08:58  m  22 28 46.863653 +07 28 21.27070
 2018-Aug-28 08:59  m  22 28 46.832006 +07 28 21.71618
 2018-Aug-28 09:00  m  22 28 46.800343 +07 28 22.16158
 2018-Aug-28 09:01  m  22 28 46.768663 +07 28 22.60690
 2018-Aug-28 09:02  m  22 28 46.736968 +07 28 23.05215
 2018-Aug-28 09:03  m  22 28 46.705257 +07 28 23.49731
 2018-Aug-28 09:04  m  22 28 46.673530 +07 28 23.94240
 2018-Aug-28 09:05  m  22 28 46.641787 +07 28 24.38740
 2018-Aug-28 09:06  m  22 28 46.610029 +07 28 24.83233
 2018-Aug-28 09:07  m  22 28 46.578256 +07 28 25.27718
 2018-Aug-28 09:08  m  22 28 46.546468 +07 28 25.72195
 2018-Aug-28 09:09  m  22 28 46.514666 +07 28 26.16664
 2018-Aug-28 09:10  m  22 28 46.482848 +07 28 26.61125
 2018-Aug-28 09:11  m  22 28 46.451016 +07 28 27.05579
 2018-Aug-28 09:12  m  22 28 46.419170 +07 28 27.50024
 2018-Aug-28 09:13  m  22 28 46.387310 +07 28 27.94461
 2018-Aug-28 09:14  m  22 28 46.355435 +07 28 28.38890
 2018-Aug-28 09:15  m  22 28 46.323547 +07 28 28.83312
 2018-Aug-28 09:16  m  22 28 46.291645 +07 28 29.27725
 2018-Aug-28 09:17  m  22 28 46.259730 +07 28 29.72130
 2018-Aug-28 09:18  m  22 28 46.227801 +07 28 30.16527
 2018-Aug-28 09:19  m  22 28 46.195860 +07 28 30.60916
 2018-Aug-28 09:20  m  22 28 46.163905 +07 28 31.05297
 2018-Aug-28 09:21  m  22 28 46.131938 +07 28 31.49670
 2018-Aug-28 09:22  m  22 28 46.099958 +07 28 31.94035
 2018-Aug-28 09:23  m  22 28 46.067966 +07 28 32.38392
 2018-Aug-28 09:24  m  22 28 46.035961 +07 28 32.82740
 2018-Aug-28 09:25  m  22 28 46.003944 +07 28 33.27081
 2018-Aug-28 09:26  m  22 28 45.971916 +07 28 33.71413
 2018-Aug-28 09:27  m  22 28 45.939876 +07 28 34.15737
 2018-Aug-28 09:28  m  22 28 45.907824 +07 28 34.60054
 2018-Aug-28 09:29  m  22 28 45.875761 +07 28 35.04362
 2018-Aug-28 09:30  m  22 28 45.843687 +07 28 35.48661
 2018-Aug-28 09:31  m  22 28 45.811601 +07 28 35.92953
 2018-Aug-28 09:32  m  22 28 45.779505 +07 28 36.37236
 2018-Aug-28 09:33  m  22 28 45.747399 +07 28 36.81512
 2018-Aug-28 09:34  m  22 28 45.715281 +07 28 37.25779
 2018-Aug-28 09:35  m  22 28 45.683154 +07 28 37.70037
 2018-Aug-28 09:36  m  22 28 45.651016 +07 28 38.14288
 2018-Aug-28 09:37  m  22 28 45.618869 +07 28 38.58530
 2018-Aug-28 09:38  m  22 28 45.586712 +07 28 39.02764
 2018-Aug-28 09:39  m  22 28 45.554545 +07 28 39.46990
 2018-Aug-28 09:40  m  22 28 45.522368 +07 28 39.91208
 2018-Aug-28 09:41  m  22 28 45.490183 +07 28 40.35417
 2018-Aug-28 09:42  m  22 28 45.457988 +07 28 40.79618
 2018-Aug-28 09:43  m  22 28 45.425785 +07 28 41.23811
 2018-Aug-28 09:44  m  22 28 45.393573 +07 28 41.67995
 2018-Aug-28 09:45  m  22 28 45.361352 +07 28 42.12172
 2018-Aug-28 09:46  m  22 28 45.329123 +07 28 42.56340
 2018-Aug-28 09:47  m  22 28 45.296886 +07 28 43.00499
 2018-Aug-28 09:48  m  22 28 45.264641 +07 28 43.44650
 2018-Aug-28 09:49  m  22 28 45.232388 +07 28 43.88793
 2018-Aug-28 09:50  m  22 28 45.200128 +07 28 44.32928
 2018-Aug-28 09:51  m  22 28 45.167860 +07 28 44.77054
 2018-Aug-28 09:52  m  22 28 45.135585 +07 28 45.21172
 2018-Aug-28 09:53  m  22 28 45.103303 +07 28 45.65282
 2018-Aug-28 09:54  m  22 28 45.071014 +07 28 46.09383
 2018-Aug-28 09:55  m  22 28 45.038718 +07 28 46.53476
 2018-Aug-28 09:56  m  22 28 45.006415 +07 28 46.97560
 2018-Aug-28 09:57  m  22 28 44.974107 +07 28 47.41636
 2018-Aug-28 09:58  m  22 28 44.941792 +07 28 47.85704
 2018-Aug-28 09:59  m  22 28 44.909471 +07 28 48.29763
 2018-Aug-28 10:00  m  22 28 44.877144 +07 28 48.73814
 2018-Aug-28 10:01  m  22 28 44.844812 +07 28 49.17857
 2018-Aug-28 10:02  m  22 28 44.812474 +07 28 49.61891
 2018-Aug-28 10:03  m  22 28 44.780131 +07 28 50.05917
 2018-Aug-28 10:04  m  22 28 44.747783 +07 28 50.49934
 2018-Aug-28 10:05  m  22 28 44.715430 +07 28 50.93943
 2018-Aug-28 10:06  m  22 28 44.683073 +07 28 51.37944
 2018-Aug-28 10:07  m  22 28 44.650711 +07 28 51.81936
 2018-Aug-28 10:08  m  22 28 44.618344 +07 28 52.25920
 2018-Aug-28 10:09  m  22 28 44.585973 +07 28 52.69895
 2018-Aug-28 10:10  m  22 28 44.553598 +07 28 53.13862
 2018-Aug-28 10:11  m  22 28 44.521220 +07 28 53.57820
 2018-Aug-28 10:12  m  22 28 44.488838 +07 28 54.01770
 2018-Aug-28 10:13  m  22 28 44.456452 +07 28 54.45712
 2018-Aug-28 10:14  m  22 28 44.424063 +07 28 54.89645
 2018-Aug-28 10:15  m  22 28 44.391671 +07 28 55.33569
 2018-Aug-28 10:16  m  22 28 44.359276 +07 28 55.77485
 2018-Aug-28 10:17  m  22 28 44.326879 +07 28 56.21393
 2018-Aug-28 10:18  m  22 28 44.294479 +07 28 56.65292
 2018-Aug-28 10:19  m  22 28 44.262076 +07 28 57.09183
 2018-Aug-28 10:20  m  22 28 44.229672 +07 28 57.53066
 2018-Aug-28 10:21  m  22 28 44.197265 +07 28 57.96939
 2018-Aug-28 10:22  m  22 28 44.164857 +07 28 58.40805
 2018-Aug-28 10:23  m  22 28 44.132447 +07 28 58.84662
 2018-Aug-28 10:24  m  22 28 44.100035 +07 28 59.28510
 2018-Aug-28 10:25  m  22 28 44.067622 +07 28 59.72350
 2018-Aug-28 10:26  t  22 28 44.035209 +07 29 00.16182
 2018-Aug-28 10:27  m  22 28 44.002794 +07 29 00.60005
 2018-Aug-28 10:28  m  22 28 43.970378 +07 29 01.03820
 2018-Aug-28 10:29  m  22 28 43.937962 +07 29 01.47626
 2018-Aug-28 10:30  m  22 28 43.905546 +07 29 01.91424
 2018-Aug-28 10:31  m  22 28 43.873130 +07 29 02.35213
 2018-Aug-28 10:32  m  22 28 43.840713 +07 29 02.78994
 2018-Aug-28 10:33  m  22 28 43.808297 +07 29 03.22766
 2018-Aug-28 10:34  m  22 28 43.775881 +07 29 03.66530
 2018-Aug-28 10:35  m  22 28 43.743466 +07 29 04.10285
 2018-Aug-28 10:36  m  22 28 43.711051 +07 29 04.54032
 2018-Aug-28 10:37  m  22 28 43.678638 +07 29 04.97770
 2018-Aug-28 10:38  m  22 28 43.646225 +07 29 05.41500
 2018-Aug-28 10:39  m  22 28 43.613814 +07 29 05.85222
 2018-Aug-28 10:40  m  22 28 43.581405 +07 29 06.28935
 2018-Aug-28 10:41  m  22 28 43.548997 +07 29 06.72639
 2018-Aug-28 10:42  m  22 28 43.516590 +07 29 07.16335
 2018-Aug-28 10:43  m  22 28 43.484186 +07 29 07.60023
 2018-Aug-28 10:44  m  22 28 43.451784 +07 29 08.03702
 2018-Aug-28 10:45  m  22 28 43.419385 +07 29 08.47373
 2018-Aug-28 10:46  m  22 28 43.386988 +07 29 08.91035
 2018-Aug-28 10:47  m  22 28 43.354594 +07 29 09.34689
 2018-Aug-28 10:48  m  22 28 43.322202 +07 29 09.78334
 2018-Aug-28 10:49  m  22 28 43.289814 +07 29 10.21971
 2018-Aug-28 10:50  m  22 28 43.257429 +07 29 10.65600
 2018-Aug-28 10:51  m  22 28 43.225048 +07 29 11.09220
 2018-Aug-28 10:52  m  22 28 43.192670 +07 29 11.52831
 2018-Aug-28 10:53  m  22 28 43.160296 +07 29 11.96434
 2018-Aug-28 10:54  m  22 28 43.127927 +07 29 12.40029
 2018-Aug-28 10:55  m  22 28 43.095561 +07 29 12.83615
 2018-Aug-28 10:56  m  22 28 43.063200 +07 29 13.27193
 2018-Aug-28 10:57  m  22 28 43.030843 +07 29 13.70762
 2018-Aug-28 10:58  m  22 28 42.998491 +07 29 14.14323
